[Satellite]
VERSION=1.1
NAME=FENGYUN 4A
NICKNAME=FENGYUN 4A
TLE1=1 41882U 16077A   19317.85950957 -.00000314  00000-0  00000+0 0  9991
TLE2=2 41882   0.1605 289.1574 0003041 123.5502  53.9253  1.00266516 10846
STATUS=0
